STARLINK-31396          
1 59409U 24064M   25277.85096219 -.00001431  00000+0 -42496-4 0  9995
2 59409  43.0063 205.7595 0001807 282.9885  77.0765 15.27571679 85450
STARLINK-31412          
1 59410U 24064N   25277.85722157  .00000259  00000+0  18937-4 0  9992
2 59410  42.9952 216.1884 0000505  29.8811 330.2070 15.27571892 85398
STARLINK-31483          
1 59411U 24064P   25277.86877124 -.00007350  00000+0 -25790-3 0  9994
2 59411  43.0037 216.2795 0001693 274.0178  86.0480 15.27571107 85396
STARLINK-31568          
1 59412U 24064Q   25277.87134574 -.00001791  00000+0 -55581-4 0  9996
2 59412  42.9996 216.3016 0000522 241.8787 118.2012 15.27578920 85393
STARLINK-31615          
1 59413U 24064R   25277.86460074 -.00001760  00000+0 -54420-4 0  9990
2 59413  43.0052 209.3038 0000961 251.6283 108.4464 15.27590900 85475
STARLINK-31457          
1 59414U 24064S   25277.86715079  .00001933  00000+0  79698-4 0  9993
2 59414  43.0052 209.3257 0001305 267.5360  92.5342 15.27598378 85479
STARLINK-31398          
1 59415U 24064T   25277.85336389  .00000245  00000+0  18444-4 0  9993
2 59415  43.0002 216.1614 0001783 263.9025  96.1624 15.27564870 85390
STARLINK-31399          
1 59416U 24064U   25277.84692134  .00000771  00000+0  37541-4 0  9999
2 59416  42.9994 216.1096 0002306 211.0221 149.0494 15.27577462 85391
STARLINK-31401          
1 59417U 24064V   25277.86073398  .00001579  00000+0  66833-4 0  9990
2 59417  43.0056 209.2993 0001355 268.0918  91.9778 15.27602521 85227
STARLINK-31414          
1 59418U 24064W   25277.86492700 -.00002097  00000+0 -66745-4 0  9993
2 59418  43.0001 216.2515 0001141 278.0563  82.0159 15.27567889 85395
STARLINK-31415          
1 59419U 24064X   25277.82523701  .00001222  00000+0  53930-4 0  9995
2 59419  43.0042 216.8230 0001538 260.2037  99.8641 15.27575919 85384
STARLINK-31466          
1 59420U 24064Y   25277.88676586 -.00000735  00000+0 -17162-4 0  9990
2 59420  43.0042 216.4216 0001894 272.0476  88.0159 15.27582194 85397
STARLINK-11087 [DTC]    
1 59421U 24065A   25276.37806289  .00000243  00000+0  68695-5 0  9990
2 59421  53.1605 149.5116 0001078  89.6224 270.4918 15.69692569 86808
STARLINK-11090 [DTC]    
1 59422U 24065B   25277.63672590 -.00000549  00000+0  32612-6 0  9998
2 59422  53.1585 143.1383 0001011  72.4910 287.6218 15.69710479 87020
STARLINK-11093 [DTC]    
1 59423U 24065C   25276.04988215 -.00002868  00000+0 -18812-4 0  9998
2 59423  53.1574 151.0133 0001008 137.4333 222.6763 15.69723448 86761
STARLINK-11083 [DTC]    
1 59424U 24065D   25276.62783297 -.00000221  00000+0  30336-5 0  9992
2 59424  53.1579 148.2263 0001217  76.6781 283.4373 15.69700973 86807
