[{"OBJECT_NAME":"STARLINK-31396","OBJECT_ID":"2024-064M","EPOCH":"2025-10-04T20:25:23.133216","MEAN_MOTION":15.27571679,"ECCENTRICITY":0.0001807,"INCLINATION":43.0063,"RA_OF_ASC_NODE":205.7595,"ARG_OF_PERICENTER":282.9885,"MEAN_ANOMALY":77.0765,"EPHEMERIS_TYPE":0,"CLASSIFICATION_TYPE":"U","NORAD_CAT_ID":59409,"ELEMENT_SET_NO":999,"REV_AT_EPOCH":8545,"BSTAR":-4.2496e-5,"MEAN_MOTION_DOT":-1.431e-5,"MEAN_MOTION_DDOT":0},{"OBJECT_NAME":"STARLINK-31412","OBJECT_ID":"2024-064N","EPOCH":"2025-10-04T20:34:23.943648","MEAN_MOTION":15.27571892,"ECCENTRICITY":5.05e-5,"INCLINATION":42.9952,"RA_OF_ASC_NODE":216.1884,"ARG_OF_PERICENTER":29.8811,"MEAN_ANOMALY":330.207,"EPHEMERIS_TYPE":0,"CLASSIFICATION_TYPE":"U","NORAD_CAT_ID":59410,"ELEMENT_SET_NO":999,"REV_AT_EPOCH":8539,"BSTAR":1.8937e-5,"MEAN_MOTION_DOT":2.59e-6,"MEAN_MOTION_DDOT":0},{"OBJECT_NAME":"STARLINK-31483","OBJECT_ID":"2024-064P","EPOCH":"2025-10-04T20:51:01.835136","MEAN_MOTION":15.27571107,"ECCENTRICITY":0.0001693,"INCLINATION":43.0037,"RA_OF_ASC_NODE":216.2795,"ARG_OF_PERICENTER":274.0178,"MEAN_ANOMALY":86.048,"EPHEMERIS_TYPE":0,"CLASSIFICATION_TYPE":"U","NORAD_CAT_ID":59411,"ELEMENT_SET_NO":999,"REV_AT_EPOCH":8539,"BSTAR":-0.0002579,"MEAN_MOTION_DOT":-7.35e-5,"MEAN_MOTION_DDOT":0},{"OBJECT_NAME":"STARLINK-31568","OBJECT_ID":"2024-064Q","EPOCH":"2025-10-04T20:54:44.271936","MEAN_MOTION":15.2757892,"ECCENTRICITY":5.22e-5,"INCLINATION":42.9996,"RA_OF_ASC_NODE":216.3016,"ARG_OF_PERICENTER":241.8787,"MEAN_ANOMALY":118.2012,"EPHEMERIS_TYPE":0,"CLASSIFICATION_TYPE":"U","NORAD_CAT_ID":59412,"ELEMENT_SET_NO":999,"REV_AT_EPOCH":8539,"BSTAR":-5.5581e-5,"MEAN_MOTION_DOT":-1.791e-5,"MEAN_MOTION_DDOT":0},{"OBJECT_NAME":"STARLINK-31615","OBJECT_ID":"2024-064R","EPOCH":"2025-10-04T20:45:01.503936","MEAN_MOTION":15.275909,"ECCENTRICITY":9.61e-5,"INCLINATION":43.0052,"RA_OF_ASC_NODE":209.3038,"ARG_OF_PERICENTER":251.6283,"MEAN_ANOMALY":108.4464,"EPHEMERIS_TYPE":0,"CLASSIFICATION_TYPE":"U","NORAD_CAT_ID":59413,"ELEMENT_SET_NO":999,"REV_AT_EPOCH":8547,"BSTAR":-5.442e-5,"MEAN_MOTION_DOT":-1.76e-5,"MEAN_MOTION_DDOT":0},{"OBJECT_NAME":"STARLINK-31457","OBJECT_ID":"2024-064S","EPOCH":"2025-10-04T20:48:41.828256","MEAN_MOTION":15.27598378,"ECCENTRICITY":0.0001305,"INCLINATION":43.0052,"RA_OF_ASC_NODE":209.3257,"ARG_OF_PERICENTER":267.536,"MEAN_ANOMALY":92.5342,"EPHEMERIS_TYPE":0,"CLASSIFICATION_TYPE":"U","NORAD_CAT_ID":59414,"ELEMENT_SET_NO":999,"REV_AT_EPOCH":8547,"BSTAR":7.9698e-5,"MEAN_MOTION_DOT":1.933e-5,"MEAN_MOTION_DDOT":0},{"OBJECT_NAME":"STARLINK-31398","OBJECT_ID":"2024-064T","EPOCH":"2025-10-04T20:28:50.640096","MEAN_MOTION":15.2756487,"ECCENTRICITY":0.0001783,"INCLINATION":43.0002,"RA_OF_ASC_NODE":216.1614,"ARG_OF_PERICENTER":263.9025,"MEAN_ANOMALY":96.1624,"EPHEMERIS_TYPE":0,"CLASSIFICATION_TYPE":"U","NORAD_CAT_ID":59415,"ELEMENT_SET_NO":999,"REV_AT_EPOCH":8539,"BSTAR":1.8444e-5,"MEAN_MOTION_DOT":2.45e-6,"MEAN_MOTION_DDOT":0},{"OBJECT_NAME":"STARLINK-31399","OBJECT_ID":"2024-064U","EPOCH":"2025-10-04T20:19:34.003776","MEAN_MOTION":15.27577462,"ECCENTRICITY":0.0002306,"INCLINATION":42.9994,"RA_OF_ASC_NODE":216.1096,"ARG_OF_PERICENTER":211.0221,"MEAN_ANOMALY":149.0494,"EPHEMERIS_TYPE":0,"CLASSIFICATION_TYPE":"U","NORAD_CAT_ID":59416,"ELEMENT_SET_NO":999,"REV_AT_EPOCH":8539,"BSTAR":3.7541e-5,"MEAN_MOTION_DOT":7.71e-6,"MEAN_MOTION_DDOT":0},{"OBJECT_NAME":"STARLINK-31401","OBJECT_ID":"2024-064V","EPOCH":"2025-10-04T20:39:27.415872","MEAN_MOTION":15.27602521,"ECCENTRICITY":0.0001355,"INCLINATION":43.0056,"RA_OF_ASC_NODE":209.2993,"ARG_OF_PERICENTER":268.0918,"MEAN_ANOMALY":91.9778,"EPHEMERIS_TYPE":0,"CLASSIFICATION_TYPE":"U","NORAD_CAT_ID":59417,"ELEMENT_SET_NO":999,"REV_AT_EPOCH":8522,"BSTAR":6.6833e-5,"MEAN_MOTION_DOT":1.579e-5,"MEAN_MOTION_DDOT":0},{"OBJECT_NAME":"STARLINK-31414","OBJECT_ID":"2024-064W","EPOCH":"2025-10-04T20:45:29.692800","MEAN_MOTION":15.27567889,"ECCENTRICITY":0.0001141,"INCLINATION":43.0001,"RA_OF_ASC_NODE":216.2515,"ARG_OF_PERICENTER":278.0563,"MEAN_ANOMALY":82.0159,"EPHEMERIS_TYPE":0,"CLASSIFICATION_TYPE":"U","NORAD_CAT_ID":59418,"ELEMENT_SET_NO":999,"REV_AT_EPOCH":8539,"BSTAR":-6.6745e-5,"MEAN_MOTION_DOT":-2.097e-5,"MEAN_MOTION_DDOT":0},{"OBJECT_NAME":"STARLINK-31415","OBJECT_ID":"2024-064X","EPOCH":"2025-10-04T19:48:20.477664","MEAN_MOTION":15.27575919,"ECCENTRICITY":0.0001538,"INCLINATION":43.0042,"RA_OF_ASC_NODE":216.823,"ARG_OF_PERICENTER":260.2037,"MEAN_ANOMALY":99.8641,"EPHEMERIS_TYPE":0,"CLASSIFICATION_TYPE":"U","NORAD_CAT_ID":59419,"ELEMENT_SET_NO":999,"REV_AT_EPOCH":8538,"BSTAR":5.393e-5,"MEAN_MOTION_DOT":1.222e-5,"MEAN_MOTION_DDOT":0},{"OBJECT_NAME":"STARLINK-31466","OBJECT_ID":"2024-064Y","EPOCH":"2025-10-04T21:16:56.570304","MEAN_MOTION":15.27582194,"ECCENTRICITY":0.0001894,"INCLINATION":43.0042,"RA_OF_ASC_NODE":216.4216,"ARG_OF_PERICENTER":272.0476,"MEAN_ANOMALY":88.0159,"EPHEMERIS_TYPE":0,"CLASSIFICATION_TYPE":"U","NORAD_CAT_ID":59420,"ELEMENT_SET_NO":999,"REV_AT_EPOCH":8539,"BSTAR":-1.7162e-5,"MEAN_MOTION_DOT":-7.35e-6,"MEAN_MOTION_DDOT":0},{"OBJECT_NAME":"STARLINK-11087 [DTC]","OBJECT_ID":"2024-065A","EPOCH":"2025-10-03T09:04:24.633696","MEAN_MOTION":15.69692569,"ECCENTRICITY":0.00010787,"INCLINATION":53.1605,"RA_OF_ASC_NODE":149.5116,"ARG_OF_PERICENTER":89.6224,"MEAN_ANOMALY":270.4918,"EPHEMERIS_TYPE":0,"CLASSIFICATION_TYPE":"U","NORAD_CAT_ID":59421,"ELEMENT_SET_NO":999,"REV_AT_EPOCH":8680,"BSTAR":6.869537e-6,"MEAN_MOTION_DOT":2.43e-6,"MEAN_MOTION_DDOT":0},{"OBJECT_NAME":"STARLINK-11090 [DTC]","OBJECT_ID":"2024-065B","EPOCH":"2025-10-04T15:16:53.117760","MEAN_MOTION":15.69710479,"ECCENTRICITY":0.0001011,"INCLINATION":53.1585,"RA_OF_ASC_NODE":143.1383,"ARG_OF_PERICENTER":72.491,"MEAN_ANOMALY":287.6218,"EPHEMERIS_TYPE":0,"CLASSIFICATION_TYPE":"U","NORAD_CAT_ID":59422,"ELEMENT_SET_NO":999,"REV_AT_EPOCH":8702,"BSTAR":3.2612e-7,"MEAN_MOTION_DOT":-5.49e-6,"MEAN_MOTION_DDOT":0},{"OBJECT_NAME":"STARLINK-11093 [DTC]","OBJECT_ID":"2024-065C","EPOCH":"2025-10-03T01:11:49.817760","MEAN_MOTION":15.69723448,"ECCENTRICITY":0.00010083,"INCLINATION":53.1574,"RA_OF_ASC_NODE":151.0133,"ARG_OF_PERICENTER":137.4333,"MEAN_ANOMALY":222.6763,"EPHEMERIS_TYPE":0,"CLASSIFICATION_TYPE":"U","NORAD_CAT_ID":59423,"ELEMENT_SET_NO":999,"REV_AT_EPOCH":8676,"BSTAR":-1.8811582e-5,"MEAN_MOTION_DOT":-2.868e-5,"MEAN_MOTION_DDOT":0},{"OBJECT_NAME":"STARLINK-11083 [DTC]","OBJECT_ID":"2024-065D","EPOCH":"2025-10-03T15:04:04.768608","MEAN_MOTION":15.69700973,"ECCENTRICITY":0.00012179,"INCLINATION":53.1579,"RA_OF_ASC_NODE":148.2263,"ARG_OF_PERICENTER":76.6781,"MEAN_ANOMALY":283.4373,"EPHEMERIS_TYPE":0,"CLASSIFICATION_TYPE":"U","NORAD_CAT_ID":59424,"ELEMENT_SET_NO":999,"REV_AT_EPOCH":8680,"BSTAR":3.03355e-6,"MEAN_MOTION_DOT":-2.21e-6,"MEAN_MOTION_DDOT":0}]
